{
  "norad_id": 68669,
  "name": "STARLINK-37302",
  "history": [
    {
      "epoch": "2026-04-22T13:03:29.788128Z",
      "apogee_km": 344.9020334967072,
      "perigee_km": 342.9674212535683,
      "latitude_deg": -1.5599892659897902e-06,
      "longitude_deg": -62.879575608994934,
      "height_km": 347.12816873206543,
      "semi_major_axis_km": 6722.071727375137,
      "eccentricity": 0.0001439,
      "inclination_deg": 97.284,
      "raan_deg": 343.5987,
      "arg_perigee_deg": 91.6182,
      "mean_anomaly_deg": 268.5248,
      "mean_motion_rev_day": 15.75244778
    }
  ]
}